start=new Date('2022-08-30T00:00:00.000Z').valueOf();
sats=[{"RA_OF_ASC_NODE":"220.1500","LAUNCH_DATE":"2022-04-29","EPOCH":"2022-08-29T22:00:00.999936","MEAN_MOTION_DDOT":"0.0000000000000","NORAD_CAT_ID":"52347","OBJECT_TYPE":"PAYLOAD","PERIAPSIS":"538.554","SEMIMAJOR_AXIS":"6917.981","MEAN_MOTION_DOT":"0.00026517","REV_AT_EPOCH":"130","BSTAR":"0.00167940000000","OBJECT_ID":"2022-045S","PERIOD":"95.440","COUNTRY_CODE":"US","TIME_SYSTEM":"UTC","CLASSIFICATION_TYPE":"U","APOAPSIS":"541.137","INCLINATION":"53.2159","FILE":"3551093","SITE":"AFETR","MEAN_MOTION":"15.08807203","DECAY_DATE":null,"TLE_LINE1":"1 52347U 22045S   22241.91667824  .00026517  00000-0  16794-2 0  9998","EPHEMERIS_TYPE":"0","CENTER_NAME":"EARTH","MEAN_ELEMENT_THEORY":"SGP4","REF_FRAME":"TEME","ELEMENT_SET_NO":"999","ECCENTRICITY":"0.00018670","GP_ID":"211289773","TLE_LINE2":"2 52347  53.2159 220.1500 0001867  57.1290 148.3656 15.08807203  1305","OBJECT_NAME":"STARLINK-3826","ARG_OF_PERICENTER":"57.1290","MEAN_ANOMALY":"148.3656","RCS_SIZE":"LARGE"},{"OBJECT_ID":"2022-045T","SEMIMAJOR_AXIS":"6917.896","PERIAPSIS":"537.908","BSTAR":"0.00187990000000","REV_AT_EPOCH":"130","MEAN_MOTION_DOT":"0.00029754","OBJECT_TYPE":"PAYLOAD","NORAD_CAT_ID":"52348","EPOCH":"2022-08-29T22:00:00.999936","LAUNCH_DATE":"2022-04-29","RA_OF_ASC_NODE":"220.1655","MEAN_MOTION_DDOT":"0.0000000000000","APOAPSIS":"541.613","CLASSIFICATION_TYPE":"U","TIME_SYSTEM":"UTC","PERIOD":"95.438","COUNTRY_CODE":"US","EPHEMERIS_TYPE":"0","CENTER_NAME":"EARTH","ELEMENT_SET_NO":"999","MEAN_ELEMENT_THEORY":"SGP4","REF_FRAME":"TEME","SITE":"AFETR","TLE_LINE1":"1 52348U 22045T   22241.91667824  .00029754  00000-0  18799-2 0  9992","DECAY_DATE":null,"MEAN_MOTION":"15.08834981","INCLINATION":"53.2160","FILE":"3551093","RCS_SIZE":"LARGE","MEAN_ANOMALY":"256.6937","ARG_OF_PERICENTER":"48.7695","OBJECT_NAME":"STARLINK-3829","ECCENTRICITY":"0.00026780","GP_ID":"211290062","TLE_LINE2":"2 52348  53.2160 220.1655 0002678  48.7695 256.6937 15.08834981  1303"},{"COUNTRY_CODE":"US","PERIOD":"95.437","TIME_SYSTEM":"UTC","CLASSIFICATION_TYPE":"U","APOAPSIS":"541.488","MEAN_MOTION_DDOT":"0.0000000000000","LAUNCH_DATE":"2022-04-29","RA_OF_ASC_NODE":"220.1564","EPOCH":"2022-08-29T22:00:00.999936","OBJECT_TYPE":"PAYLOAD","NORAD_CAT_ID":"52349","REV_AT_EPOCH":"130","BSTAR":"-0.00114120000000","MEAN_MOTION_DOT":"-0.00018411","SEMIMAJOR_AXIS":"6917.847","PERIAPSIS":"537.936","OBJECT_ID":"2022-045U","TLE_LINE2":"2 52349  53.2142 220.1564 0002567  52.8518 192.6936 15.08851009  1308","GP_ID":"211289501","ECCENTRICITY":"0.00025670","MEAN_ANOMALY":"192.6936","ARG_OF_PERICENTER":"52.8518","OBJECT_NAME":"STARLINK-3819","RCS_SIZE":"LARGE","FILE":"3551093","INCLINATION":"53.2142","TLE_LINE1":"1 52349U 22045U   22241.91667824 -.00018411  00000-0 -11412-2 0  9998","DECAY_DATE":null,"MEAN_MOTION":"15.08851009","SITE":"AFETR","ELEMENT_SET_NO":"999","MEAN_ELEMENT_THEORY":"SGP4","REF_FRAME":"TEME","CENTER_NAME":"EARTH","EPHEMERIS_TYPE":"0"},{"RCS_SIZE":"LARGE","OBJECT_NAME":"STARLINK-3754","MEAN_ANOMALY":"270.2510","ARG_OF_PERICENTER":"55.2979","TLE_LINE2":"2 52350  53.2166 220.1662 0002403  55.2979 270.2510 15.08844551  1307","ECCENTRICITY":"0.00024030","GP_ID":"211289630","REF_FRAME":"TEME","MEAN_ELEMENT_THEORY":"SGP4","ELEMENT_SET_NO":"999","EPHEMERIS_TYPE":"0","CENTER_NAME":"EARTH","DECAY_DATE":null,"MEAN_MOTION":"15.08844551","TLE_LINE1":"1 52350U 22045V   22241.91667824  .00005251  00000-0  34773-3 0  9992","SITE":"AFETR","FILE":"3551093","INCLINATION":"53.2166","APOAPSIS":"541.394","CLASSIFICATION_TYPE":"U","TIME_SYSTEM":"UTC","COUNTRY_CODE":"US","PERIOD":"95.437","OBJECT_ID":"2022-045V","MEAN_MOTION_DOT":"0.00005251","REV_AT_EPOCH":"130","BSTAR":"0.00034773000000","PERIAPSIS":"538.069","SEMIMAJOR_AXIS":"6917.866","NORAD_CAT_ID":"52350","OBJECT_TYPE":"PAYLOAD","MEAN_MOTION_DDOT":"0.0000000000000","RA_OF_ASC_NODE":"220.1662","LAUNCH_DATE":"2022-04-29","EPOCH":"2022-08-29T22:00:00.999936"},{"SITE":"AFETR","TLE_LINE1":"1 52351U 22045W   22241.91667824  .00028127  00000-0  17789-2 0  9997","MEAN_MOTION":"15.08826236","DECAY_DATE":null,"EPHEMERIS_TYPE":"0","CENTER_NAME":"EARTH","ELEMENT_SET_NO":"999","MEAN_ELEMENT_THEORY":"SGP4","REF_FRAME":"TEME","INCLINATION":"53.2154","FILE":"3551093","MEAN_ANOMALY":"227.0806","ARG_OF_PERICENTER":"58.4160","OBJECT_NAME":"STARLINK-3816","RCS_SIZE":"LARGE","ECCENTRICITY":"0.00024410","GP_ID":"211289358","TLE_LINE2":"2 52351  53.2154 220.1612 0002441  58.4160 227.0806 15.08826236  1307","SEMIMAJOR_AXIS":"6917.922","PERIAPSIS":"538.099","BSTAR":"0.00177890000000","REV_AT_EPOCH":"130","MEAN_MOTION_DOT":"0.00028127","OBJECT_ID":"2022-045W","EPOCH":"2022-08-29T22:00:00.999936","LAUNCH_DATE":"2022-04-29","RA_OF_ASC_NODE":"220.1612","MEAN_MOTION_DDOT":"0.0000000000000","OBJECT_TYPE":"PAYLOAD","NORAD_CAT_ID":"52351","CLASSIFICATION_TYPE":"U","APOAPSIS":"541.476","PERIOD":"95.438","COUNTRY_CODE":"US","TIME_SYSTEM":"UTC"},{"OBJECT_ID":"2022-045X","SEMIMAJOR_AXIS":"6917.938","PERIAPSIS":"538.260","REV_AT_EPOCH":"130","BSTAR":"0.00193430000000","MEAN_MOTION_DOT":"0.00030615","OBJECT_TYPE":"PAYLOAD","NORAD_CAT_ID":"52352","EPOCH":"2022-08-29T22:00:00.999936","LAUNCH_DATE":"2022-04-29","RA_OF_ASC_NODE":"220.1595","MEAN_MOTION_DDOT":"0.0000000000000","APOAPSIS":"541.346","CLASSIFICATION_TYPE":"U","TIME_SYSTEM":"UTC","PERIOD":"95.439","COUNTRY_CODE":"US","CENTER_NAME":"EARTH","EPHEMERIS_TYPE":"0","ELEMENT_SET_NO":"999","REF_FRAME":"TEME","MEAN_ELEMENT_THEORY":"SGP4","SITE":"AFETR","TLE_LINE1":"1 52352U 22045X   22241.91667824  .00030615  00000-0  19343-2 0  9991","DECAY_DATE":null,"MEAN_MOTION":"15.08821117","INCLINATION":"53.2196","FILE":"3551093","RCS_SIZE":"LARGE","ARG_OF_PERICENTER":"50.6597","MEAN_ANOMALY":"334.8698","OBJECT_NAME":"STARLINK-3838","ECCENTRICITY":"0.00022300","GP_ID":"211290220","TLE_LINE2":"2 52352  53.2196 220.1595 0002230  50.6597 334.8698 15.08821117  1307"},{"FILE":"3551093","INCLINATION":"53.2176","TLE_LINE1":"1 52353U 22045Y   22241.91667824  .00030444  00000-0  19240-2 0  9998","DECAY_DATE":null,"MEAN_MOTION":"15.08813947","SITE":"AFETR","ELEMENT_SET_NO":"999","MEAN_ELEMENT_THEORY":"SGP4","REF_FRAME":"TEME","EPHEMERIS_TYPE":"0","CENTER_NAME":"EARTH","TLE_LINE2":"2 52353  53.2176 220.1583 0002487  50.0302 295.5204 15.08813947  1303","GP_ID":"211289918","ECCENTRICITY":"0.00024870","MEAN_ANOMALY":"295.5204","ARG_OF_PERICENTER":"50.0302","OBJECT_NAME":"STARLINK-3807","RCS_SIZE":"LARGE","MEAN_MOTION_DDOT":"0.0000000000000","LAUNCH_DATE":"2022-04-29","EPOCH":"2022-08-29T22:00:00.999936","RA_OF_ASC_NODE":"220.1583","NORAD_CAT_ID":"52353","OBJECT_TYPE":"PAYLOAD","REV_AT_EPOCH":"130","BSTAR":"0.00192400000000","MEAN_MOTION_DOT":"0.00030444","SEMIMAJOR_AXIS":"6917.960","PERIAPSIS":"538.105","OBJECT_ID":"2022-045Y","COUNTRY_CODE":"US","PERIOD":"95.439","TIME_SYSTEM":"UTC","CLASSIFICATION_TYPE":"U","APOAPSIS":"541.546"},{"APOAPSIS":"541.443","CLASSIFICATION_TYPE":"U","TIME_SYSTEM":"UTC","PERIOD":"95.439","COUNTRY_CODE":"US","OBJECT_ID":"2022-045Z","PERIAPSIS":"538.164","SEMIMAJOR_AXIS":"6917.938","MEAN_MOTION_DOT":"0.00030460","BSTAR":"0.00192460000000","REV_AT_EPOCH":"130","OBJECT_TYPE":"PAYLOAD","NORAD_CAT_ID":"52354","LAUNCH_DATE":"2022-04-29","EPOCH":"2022-08-29T22:00:00.999936","RA_OF_ASC_NODE":"220.1479","MEAN_MOTION_DDOT":"0.0000000000000","RCS_SIZE":"LARGE","OBJECT_NAME":"STARLINK-3876","ARG_OF_PERICENTER":"47.2313","MEAN_ANOMALY":"38.3235","GP_ID":"211289214","ECCENTRICITY":"0.00023700","TLE_LINE2":"2 52354  53.2176 220.1479 0002370  47.2313  38.3235 15.08821040  1309","EPHEMERIS_TYPE":"0","CENTER_NAME":"EARTH","MEAN_ELEMENT_THEORY":"SGP4","REF_FRAME":"TEME","ELEMENT_SET_NO":"999","SITE":"AFETR","DECAY_DATE":null,"MEAN_MOTION":"15.08821040","TLE_LINE1":"1 52354U 22045Z   22241.91667824  .00030460  00000-0  19246-2 0  9993","INCLINATION":"53.2176","FILE":"3551093"},{"MEAN_MOTION_DDOT":"0.0000000000000","EPOCH":"2022-08-29T22:00:00.999936","LAUNCH_DATE":"2022-04-29","RA_OF_ASC_NODE":"220.1574","NORAD_CAT_ID":"52355","OBJECT_TYPE":"PAYLOAD","BSTAR":"0.00192960000000","REV_AT_EPOCH":"130","MEAN_MOTION_DOT":"0.00030553","SEMIMAJOR_AXIS":"6917.891","PERIAPSIS":"538.163","OBJECT_ID":"2022-045AA","COUNTRY_CODE":"US","PERIOD":"95.438","TIME_SYSTEM":"UTC","CLASSIFICATION_TYPE":"U","APOAPSIS":"541.349","FILE":"3551093","INCLINATION":"53.2178","TLE_LINE1":"1 52355U 22045AA  22241.91667824  .00030553  00000-0  19296-2 0  9992","MEAN_MOTION":"15.08836554","DECAY_DATE":null,"SITE":"AFETR","ELEMENT_SET_NO":"999","MEAN_ELEMENT_THEORY":"SGP4","REF_FRAME":"TEME","EPHEMERIS_TYPE":"0","CENTER_NAME":"EARTH","TLE_LINE2":"2 52355  53.2178 220.1574 0002303  62.9617 302.5605 15.08836554  1308","GP_ID":"211289774","ECCENTRICITY":"0.00023030","MEAN_ANOMALY":"302.5605","ARG_OF_PERICENTER":"62.9617","OBJECT_NAME":"STARLINK-3877","RCS_SIZE":"LARGE"},{"EPHEMERIS_TYPE":"0","CENTER_NAME":"EARTH","MEAN_ELEMENT_THEORY":"SGP4","REF_FRAME":"TEME","ELEMENT_SET_NO":"999","SITE":"AFETR","DECAY_DATE":null,"MEAN_MOTION":"15.08820062","TLE_LINE1":"1 52356U 22045AB  22241.91667824  .00028797  00000-0  18210-2 0  9995","INCLINATION":"53.2180","FILE":"3551093","RCS_SIZE":"LARGE","OBJECT_NAME":"STARLINK-3801","MEAN_ANOMALY":"24.5067","ARG_OF_PERICENTER":"55.8177","ECCENTRICITY":"0.00021680","GP_ID":"211290063","TLE_LINE2":"2 52356  53.2180 220.1395 0002168  55.8177  24.5067 15.08820062  1304","OBJECT_ID":"2022-045AB","PERIAPSIS":"538.307","SEMIMAJOR_AXIS":"6917.941","MEAN_MOTION_DOT":"0.00028797","REV_AT_EPOCH":"130","BSTAR":"0.00182100000000","OBJECT_TYPE":"PAYLOAD","NORAD_CAT_ID":"52356","LAUNCH_DATE":"2022-04-29","RA_OF_ASC_NODE":"220.1395","EPOCH":"2022-08-29T22:00:00.999936","MEAN_MOTION_DDOT":"0.0000000000000","APOAPSIS":"541.306","CLASSIFICATION_TYPE":"U","TIME_SYSTEM":"UTC","PERIOD":"95.439","COUNTRY_CODE":"US"}];
